{
"type": "FeatureCollection",
"name": "ecuador_provincias_capitales",
"crs": { "type": "name", "properties": { "name": "urn:ogc:def:crs:OGC:1.3:CRS84" } },
"features": [
{ "type": "Feature", "properties": { "provincia": "Esmeraldas", "capital": "Esmeraldas", "centroid_lat": 0.6955, "centroid_lon": -79.224, "capital_lat": 0.9661, "capital_lon": -79.654 }, "geometry": { "type": "Point", "coordinates": [ -79.224, 0.6955 ] } },
{ "type": "Feature", "properties": { "provincia": "Carchi", "capital": "Tulcán", "centroid_lat": 0.7437, "centroid_lon": -78.0412, "capital_lat": 0.8119, "capital_lon": -77.7176 }, "geometry": { "type": "Point", "coordinates": [ -78.0412, 0.7437 ] } },
{ "type": "Feature", "properties": { "provincia": "Sucumbios", "capital": "", "centroid_lat": -0.0054, "centroid_lon": -76.5867, "capital_lat": -0.0053514603590344911, "capital_lon": -76.586672230411963 }, "geometry": { "type": "Point", "coordinates": [ -76.5867, -0.0054 ] } },
{ "type": "Feature", "properties": { "provincia": "Orellana", "capital": "Puerto Francisco de Orellana", "centroid_lat": -0.7776, "centroid_lon": -76.3872, "capital_lat": -0.2926, "capital_lon": -76.9876 }, "geometry": { "type": "Point", "coordinates": [ -76.3872, -0.7776 ] } },
{ "type": "Feature", "properties": { "provincia": "Pastaza", "capital": "Puyo", "centroid_lat": -1.7072, "centroid_lon": -76.8878, "capital_lat": -1.4924, "capital_lon": -78.0022 }, "geometry": { "type": "Point", "coordinates": [ -76.8878, -1.7072 ] } },
{ "type": "Feature", "properties": { "provincia": "Morona Santiago", "capital": "Macas", "centroid_lat": -2.5557, "centroid_lon": -78.0172, "capital_lat": -2.3066, "capital_lon": -78.1161 }, "geometry": { "type": "Point", "coordinates": [ -78.0172, -2.5557 ] } },
{ "type": "Feature", "properties": { "provincia": "Zamora Chinchipe", "capital": "Zamora", "centroid_lat": -4.1654, "centroid_lon": -78.9132, "capital_lat": -4.0689, "capital_lon": -79.0015 }, "geometry": { "type": "Point", "coordinates": [ -78.9132, -4.1654 ] } },
{ "type": "Feature", "properties": { "provincia": "Loja", "capital": "Loja", "centroid_lat": -4.0952, "centroid_lon": -79.6647, "capital_lat": -3.9931, "capital_lon": -79.2043 }, "geometry": { "type": "Point", "coordinates": [ -79.6647, -4.0952 ] } },
{ "type": "Feature", "properties": { "provincia": "El Oro", "capital": "Machala", "centroid_lat": -3.506, "centroid_lon": -79.8454, "capital_lat": -3.9586, "capital_lon": -79.5952 }, "geometry": { "type": "Point", "coordinates": [ -79.8454, -3.506 ] } },
{ "type": "Feature", "properties": { "provincia": "Guayas", "capital": "Guayaquil", "centroid_lat": -2.0798, "centroid_lon": -79.8972, "capital_lat": -2.189, "capital_lon": -79.884 }, "geometry": { "type": "Point", "coordinates": [ -79.8972, -2.0798 ] } },
{ "type": "Feature", "properties": { "provincia": "Galápagos", "capital": "Puerto Baquerizo Moreno", "centroid_lat": -0.5504, "centroid_lon": -90.9043, "capital_lat": -0.9047, "capital_lon": -89.616 }, "geometry": { "type": "Point", "coordinates": [ -90.9043, -0.5504 ] } },
{ "type": "Feature", "properties": { "provincia": "Santa Elena", "capital": "Santa Elena", "centroid_lat": -2.1292, "centroid_lon": -80.5638, "capital_lat": -2.2278, "capital_lon": -80.8585 }, "geometry": { "type": "Point", "coordinates": [ -80.5638, -2.1292 ] } },
{ "type": "Feature", "properties": { "provincia": "Manabi", "capital": "", "centroid_lat": -0.7347, "centroid_lon": -80.1323, "capital_lat": -0.73466963042178002, "capital_lon": -80.132272635134868 }, "geometry": { "type": "Point", "coordinates": [ -80.1323, -0.7347 ] } },
{ "type": "Feature", "properties": { "provincia": "Azuay", "capital": "Cuenca", "centroid_lat": -2.9984, "centroid_lon": -79.1694, "capital_lat": -2.9006, "capital_lon": -79.004 }, "geometry": { "type": "Point", "coordinates": [ -79.1694, -2.9984 ] } },
{ "type": "Feature", "properties": { "provincia": "Cañar", "capital": "Azogues", "centroid_lat": -2.5036, "centroid_lon": -78.9676, "capital_lat": -2.7447, "capital_lon": -78.8486 }, "geometry": { "type": "Point", "coordinates": [ -78.9676, -2.5036 ] } },
{ "type": "Feature", "properties": { "provincia": "Napo", "capital": "Tena", "centroid_lat": -1.2882, "centroid_lon": -78.5037, "capital_lat": -0.9914, "capital_lon": -77.8123 }, "geometry": { "type": "Point", "coordinates": [ -78.5037, -1.2882 ] } },
{ "type": "Feature", "properties": { "provincia": "Tungurahua", "capital": "Ambato", "centroid_lat": -0.653, "centroid_lon": -77.8216, "capital_lat": -1.2393, "capital_lon": -78.6233 }, "geometry": { "type": "Point", "coordinates": [ -77.8216, -0.653 ] } },
{ "type": "Feature", "properties": { "provincia": "Chimborazo", "capital": "Riobamba", "centroid_lat": -1.9177, "centroid_lon": -78.7256, "capital_lat": -1.6589, "capital_lon": -78.9481 }, "geometry": { "type": "Point", "coordinates": [ -78.7256, -1.9177 ] } },
{ "type": "Feature", "properties": { "provincia": "Bolivar", "capital": "", "centroid_lat": -1.6003, "centroid_lon": -79.1043, "capital_lat": -1.6003308080508105, "capital_lon": -79.104266848763331 }, "geometry": { "type": "Point", "coordinates": [ -79.1043, -1.6003 ] } },
{ "type": "Feature", "properties": { "provincia": "Imbabura", "capital": "Ibarra", "centroid_lat": 0.4107, "centroid_lon": -78.3482, "capital_lat": 0.3517, "capital_lon": -78.1225 }, "geometry": { "type": "Point", "coordinates": [ -78.3482, 0.4107 ] } },
{ "type": "Feature", "properties": { "provincia": "Cotopaxi", "capital": "Latacunga", "centroid_lat": -0.859, "centroid_lon": -78.8562, "capital_lat": -0.9333, "capital_lon": -78.6153 }, "geometry": { "type": "Point", "coordinates": [ -78.8562, -0.859 ] } },
{ "type": "Feature", "properties": { "provincia": "Los Rios", "capital": "", "centroid_lat": -1.3355, "centroid_lon": -79.4865, "capital_lat": -1.3354817985889511, "capital_lon": -79.486517923979122 }, "geometry": { "type": "Point", "coordinates": [ -79.4865, -1.3355 ] } },
{ "type": "Feature", "properties": { "provincia": "Pichincha", "capital": "Quito", "centroid_lat": -0.1066, "centroid_lon": -78.5863, "capital_lat": -0.2295, "capital_lon": -78.5243 }, "geometry": { "type": "Point", "coordinates": [ -78.5863, -0.1066 ] } },
{ "type": "Feature", "properties": { "provincia": "Santo Domingo de los Tsáchilas", "capital": "Santo Domingo", "centroid_lat": -0.2818, "centroid_lon": -79.1918, "capital_lat": -0.253, "capital_lon": -79.1753 }, "geometry": { "type": "Point", "coordinates": [ -79.1918, -0.2818 ] } }
]
}
