{"type":"FeatureCollection","crs": {"type": "name","properties": {"name": "urn:ogc:def:crs:OGC:1.3:CRS84"}},"features":[{"type":"Feature","properties":{"codigo":"01","nombre":"Azuay"},"geometry":{"type":"Polygon","coordinates":[[[-79,-3.3],[-78,-3.3],[-78,-2.5],[-79,-2.5],[-79,-3.3]]]}},{"type":"Feature","properties":{"codigo":"02","nombre":"Bolívar"},"geometry":{"type":"Polygon","coordinates":[[[-79,-2.1],[-78.3,-2.1],[-78.3,-1.4],[-79,-1.4],[-79,-2.1]]]}},{"type":"Feature","properties":{"codigo":"03","nombre":"Cañar"},"geometry":{"type":"Polygon","coordinates":[[[-79.2,-2.9],[-78.4,-2.9],[-78.4,-2.2],[-79.2,-2.2],[-79.2,-2.9]]]}},{"type":"Feature","properties":{"codigo":"04","nombre":"Carchi"},"geometry":{"type":"Polygon","coordinates":[[[-78.5,0.5],[-77.4,0.5],[-77.4,1.2],[-78.5,1.2],[-78.5,0.5]]]}},{"type":"Feature","properties":{"codigo":"05","nombre":"Cotopaxi"},"geometry":{"type":"Polygon","coordinates":[[[-79,-1.1],[-78.2,-1.1],[-78.2,-0.4],[-79,-0.4],[-79,-1.1]]]}},{"type":"Feature","properties":{"codigo":"06","nombre":"Chimborazo"},"geometry":{"type":"Polygon","coordinates":[[[-79,-2.1],[-78.3,-2.1],[-78.3,-1.3],[-79,-1.3],[-79,-2.1]]]}},{"type":"Feature","properties":{"codigo":"07","nombre":"El Oro"},"geometry":{"type":"Polygon","coordinates":[[[-80,-3.7],[-79.5,-3.7],[-79.5,-2.9],[-80,-2.9],[-80,-3.7]]]}},{"type":"Feature","properties":{"codigo":"08","nombre":"Esmeraldas"},"geometry":{"type":"Polygon","coordinates":[[[-79.8,0.3],[-78.7,0.3],[-78.7,1.5],[-79.8,1.5],[-79.8,0.3]]]}},{"type":"Feature","properties":{"codigo":"09","nombre":"Guayas"},"geometry":{"type":"Polygon","coordinates":[[[-80.5,-3],[-79.3,-3],[-79.3,-1.3],[-80.5,-1.3],[-80.5,-3]]]}},{"type":"Feature","properties":{"codigo":"10","nombre":"Imbabura"},"geometry":{"type":"Polygon","coordinates":[[[-78.6,0],[-77.8,0],[-77.8,0.8],[-78.6,0.8],[-78.6,0]]]}},{"type":"Feature","properties":{"codigo":"11","nombre":"Loja"},"geometry":{"type":"Polygon","coordinates":[[[-80,-4.5],[-79.2,-4.5],[-79.2,-3.5],[-80,-3.5],[-80,-4.5]]]}},{"type":"Feature","properties":{"codigo":"12","nombre":"Los Ríos"},"geometry":{"type":"Polygon","coordinates":[[[-79.8,-1.8],[-78.8,-1.8],[-78.8,-0.8],[-79.8,-0.8],[-79.8,-1.8]]]}},{"type":"Feature","properties":{"codigo":"13","nombre":"Manabí"},"geometry":{"type":"Polygon","coordinates":[[[-81,-1.5],[-79.5,-1.5],[-79.5,-0.5],[-81,-0.5],[-81,-1.5]]]}},{"type":"Feature","properties":{"codigo":"14","nombre":"Morona Santiago"},"geometry":{"type":"Polygon","coordinates":[[[-79,-3],[-77.5,-3],[-77.5,-2],[-79,-2],[-79,-3]]]}},{"type":"Feature","properties":{"codigo":"15","nombre":"Napo"},"geometry":{"type":"Polygon","coordinates":[[[-78.5,-1.2],[-76.5,-1.2],[-76.5,0],[-78.5,0],[-78.5,-1.2]]]}},{"type":"Feature","properties":{"codigo":"16","nombre":"Pastaza"},"geometry":{"type":"Polygon","coordinates":[[[-78.8,-2.2],[-76.8,-2.2],[-76.8,-1.2],[-78.8,-1.2],[-78.8,-2.2]]]}},{"type":"Feature","properties":{"codigo":"17","nombre":"Pichincha"},"geometry":{"type":"Polygon","coordinates":[[[-78.9,-0.7],[-78.1,-0.7],[-78.1,0.1],[-78.9,0.1],[-78.9,-0.7]]]}},{"type":"Feature","properties":{"codigo":"18","nombre":"Tungurahua"},"geometry":{"type":"Polygon","coordinates":[[[-78.9,-1.7],[-78.1,-1.7],[-78.1,-0.9],[-78.9,-0.9],[-78.9,-1.7]]]}},{"type":"Feature","properties":{"codigo":"19","nombre":"Zamora Chinchipe"},"geometry":{"type":"Polygon","coordinates":[[[-79.5,-4.2],[-77.8,-4.2],[-77.8,-2.8],[-79.5,-2.8],[-79.5,-4.2]]]}},{"type":"Feature","properties":{"codigo":"20","nombre":"Galápagos"},"geometry":{"type":"MultiPolygon","coordinates":[[[[-91.5,-0.2],[-91.5,-1.4],[-89.2,-1.4],[-89.2,-0.2],[-91.5,-0.2]]],[[[-90.5,0.2],[-89.8,0.2],[-89.8,0.6],[-90.5,0.6],[-90.5,0.2]]]]}},{"type":"Feature","properties":{"codigo":"21","nombre":"Sucumbíos"},"geometry":{"type":"Polygon","coordinates":[[[-77.8,0],[-76.2,0],[-76.2,1.2],[-77.8,1.2],[-77.8,0]]]}},{"type":"Feature","properties":{"codigo":"22","nombre":"Orellana"},"geometry":{"type":"Polygon","coordinates":[[[-77.8,-1],[-75.9,-1],[-75.9,0],[-77.8,0],[-77.8,-1]]]}},{"type":"Feature","properties":{"codigo":"23","nombre":"Santo Domingo de los Tsáchilas"},"geometry":{"type":"Polygon","coordinates":[[[-79.6,-0.7],[-78.7,-0.7],[-78.7,0.1],[-79.6,0.1],[-79.6,-0.7]]]}},{"type":"Feature","properties":{"codigo":"24","nombre":"Santa Elena"},"geometry":{"type":"Polygon","coordinates":[[[-81.2,-2.6],[-80.3,-2.6],[-80.3,-1.9],[-81.2,-1.9],[-81.2,-2.6]]]}}]}